STARLINK-31611          
1 59325U 24057F   26067.63887757 -.00000194  00000+0  24895-5 0  9991
2 59325  42.9971 193.4134 0001426 288.4796  71.5901 15.27577803109671
AL MUNTHER              
1 63240U 25052AG  26068.64540749  .00017933  00000+0  65015-3 0  9992
2 63240  97.4001 323.9152 0008027 130.7043 229.4895 15.28381521 54798
